{"type": "FeatureCollection", "features": [ {"type": "Feature", "properties": {"norad_id": 34375, "name": "IRIDIUM 33 DEB", "group": "iridium-33-debris", "lat": -28.360439743302255, "lon": 5.062475963288811, "alt_km": 822.1606597528862, "timestamp": "2025-12-11T15:53:39.928437+00:00", "meta": {"OBJECT_NAME": "IRIDIUM 33 DEB", "OBJECT_ID": "1997-051FT", "EPOCH": "2025-12-11T00:23:27.996864", "MEAN_MOTION": 14.17987093, "ECCENTRICITY": 0.01031842, "INCLINATION": 86.4327, "RA_OF_ASC_NODE": 183.3931, "ARG_OF_PERICENTER": 132.1212, "MEAN_ANOMALY": 19.5612, "EPHEMERIS_TYPE": 0, "CLASSIFICATION_TYPE": "U", "NORAD_CAT_ID": 34375, "ELEMENT_SET_NO": 999, "REV_AT_EPOCH": 86687, "BSTAR": 0.0005759811, "MEAN_MOTION_DOT": 1.262e-05, "MEAN_MOTION_DDOT": 0}, "tle": {"line1": "1 34375U 97051FT  25345.01629626  .00001262  00000+0  57598-3 0  9992", "line2": "2 34375  86.4327 183.3931 0103184 132.1212  19.5612 14.17987093866879"}}, "geometry": {"type": "Point", "coordinates": [5.062475963288811, -28.360439743302255]}}, {"type": "Feature", "properties": {"norad_id": 34376, "name": "IRIDIUM 33 DEB", "group": "iridium-33-debris", "lat": 46.4289906083512, "lon": 10.925550130147501, "alt_km": 691.5166543452433, "timestamp": "2025-12-11T15:53:39.928447+00:00", "meta": {"OBJECT_NAME": "IRIDIUM 33 DEB", "OBJECT_ID": "1997-051FU", "EPOCH": "2025-12-11T05:49:44.575392", "MEAN_MOTION": 14.62535541, "ECCENTRICITY": 0.00270137, "INCLINATION": 86.299, "RA_OF_ASC_NODE": 7.2126, "ARG_OF_PERICENTER": 171.6428, "MEAN_ANOMALY": 188.5239, "EPHEMERIS_TYPE": 0, "CLASSIFICATION_TYPE": "U", "NORAD_CAT_ID": 34376, "ELEMENT_SET_NO": 999, "REV_AT_EPOCH": 87985, "BSTAR": 0.0027609719, "MEAN_MOTION_DOT": 0.00014114, "MEAN_MOTION_DDOT": 0}, "tle": {"line1": "1 34376U 97051FU  25345.24287703  .00014114  00000+0  27610-2 0  9995", "line2": "2 34376  86.2990   7.2126 0027013 171.6428 188.5239 14.62535541879858"}}, "geometry": {"type": "Point", "coordinates": [10.925550130147501, 46.4289906083512]}}, {"type": "Feature", "properties": {"norad_id": 34486, "name": "IRIDIUM 33 DEB", "group": "iridium-33-debris", "lat": 44.931064848456195, "lon": -171.08497634520546, "alt_km": 567.5048260927742, "timestamp": "2025-12-11T15:53:39.928458+00:00", "meta": {"OBJECT_NAME": "IRIDIUM 33 DEB", "OBJECT_ID": "1997-051GB", "EPOCH": "2025-12-11T02:42:46.568736", "MEAN_MOTION": 14.95675901, "ECCENTRICITY": 0.00135337, "INCLINATION": 86.394, "RA_OF_ASC_NODE": 12.7753, "ARG_OF_PERICENTER": 118.272, "MEAN_ANOMALY": 301.206, "EPHEMERIS_TYPE": 0, "CLASSIFICATION_TYPE": "U", "NORAD_CAT_ID": 34486, "ELEMENT_SET_NO": 999, "REV_AT_EPOCH": 88962, "BSTAR": 0.0032070049, "MEAN_MOTION_DOT": 0.00035889, "MEAN_MOTION_DDOT": 0}, "tle": {"line1": "1 34486U 97051GB  25345.11303899  .00035889  00000+0  32070-2 0  9996", "line2": "2 34486  86.3940  12.7753 0013533 118.2720 301.2060 14.95675901889620"}}, "geometry": {"type": "Point", "coordinates": [-171.08497634520546, 44.931064848456195]}}, {"type": "Feature", "properties": {"norad_id": 34487, "name": "IRIDIUM 33 DEB", "group": "iridium-33-debris", "lat": -6.607743143924405, "lon": 12.416887671786911, "alt_km": 769.085505007015, "timestamp": "2025-12-11T15:53:39.928468+00:00", "meta": {"OBJECT_NAME": "IRIDIUM 33 DEB", "OBJECT_ID": "1997-051GC", "EPOCH": "2025-12-11T01:04:57.503136", "MEAN_MOTION": 14.43212791, "ECCENTRICITY": 0.00326479, "INCLINATION": 86.3436, "RA_OF_ASC_NODE": 13.1069, "ARG_OF_PERICENTER": 133.704, "MEAN_ANOMALY": 255.6027, "EPHEMERIS_TYPE": 0, "CLASSIFICATION_TYPE": "U", "NORAD_CAT_ID": 34487, "ELEMENT_SET_NO": 999, "REV_AT_EPOCH": 88224, "BSTAR": 0.00027235963, "MEAN_MOTION_DOT": 9.41e-06, "MEAN_MOTION_DDOT": 0}, "tle": {"line1": "1 34487U 97051GC  25345.04510999  .00000941  00000+0  27236-3 0  9990", "line2": "2 34487  86.3436  13.1069 0032647 133.7040 255.6027 14.43212791882243"}}, "geometry": {"type": "Point", "coordinates": [12.416887671786911, -6.607743143924405]}}, {"type": "Feature", "properties": {"norad_id": 34488, "name": "IRIDIUM 33 DEB", "group": "iridium-33-debris", "lat": -11.745068631997905, "lon": -54.418201280302966, "alt_km": 479.1265134541736, "timestamp": "2025-12-11T15:53:39.928478+00:00", "meta": {"OBJECT_NAME": "IRIDIUM 33 DEB", "OBJECT_ID": "1997-051GD", "EPOCH": "2025-12-10T14:48:36.945792", "MEAN_MOTION": 15.28578771, "ECCENTRICITY": 0.0013801, "INCLINATION": 86.3253, "RA_OF_ASC_NODE": 306.8644, "ARG_OF_PERICENTER": 55.1759, "MEAN_ANOMALY": 305.0785, "EPHEMERIS_TYPE": 0, "CLASSIFICATION_TYPE": "U", "NORAD_CAT_ID": 34488, "ELEMENT_SET_NO": 999, "REV_AT_EPOCH": 89207, "BSTAR": 0.0066252, "MEAN_MOTION_DOT": 0.00188937, "MEAN_MOTION_DDOT": 0}, "tle": {"line1": "1 34488U 97051GD  25344.61709428  .00188937  00000+0  66252-2 0  9992", "line2": "2 34488  86.3253 306.8644 0013801  55.1759 305.0785 15.28578771892077"}}, "geometry": {"type": "Point", "coordinates": [-54.418201280302966, -11.745068631997905]}}, {"type": "Feature", "properties": {"norad_id": 34492, "name": "IRIDIUM 33 DEB", "group": "iridium-33-debris", "lat": 30.67140685463915, "lon": 152.96772548091863, "alt_km": 808.0911208705948, "timestamp": "2025-12-11T15:53:39.928503+00:00", "meta": {"OBJECT_NAME": "IRIDIUM 33 DEB", "OBJECT_ID": "1997-051GH", "EPOCH": "2025-12-10T11:09:51.703200", "MEAN_MOTION": 14.25634536, "ECCENTRICITY": 0.01891979, "INCLINATION": 86.473, "RA_OF_ASC_NODE": 335.5473, "ARG_OF_PERICENTER": 245.5701, "MEAN_ANOMALY": 245.7256, "EPHEMERIS_TYPE": 0, "CLASSIFICATION_TYPE": "U", "NORAD_CAT_ID": 34492, "ELEMENT_SET_NO": 999, "REV_AT_EPOCH": 85026, "BSTAR": 0.0074682378, "MEAN_MOTION_DOT": 0.00021406, "MEAN_MOTION_DDOT": 0}, "tle": {"line1": "1 34492U 97051GH  25344.46518175  .00021406  00000+0  74682-2 0  9990", "line2": "2 34492  86.4730 335.5473 0189197 245.5701 245.7256 14.25634536850262"}}, "geometry": {"type": "Point", "coordinates": [152.96772548091863, 30.67140685463915]}}, {"type": "Feature", "properties": {"norad_id": 34497, "name": "IRIDIUM 33 DEB", "group": "iridium-33-debris", "lat": 23.34754201176784, "lon": 54.47226815633926, "alt_km": 756.4241303021981, "timestamp": "2025-12-11T15:53:39.928516+00:00", "meta": {"OBJECT_NAME": "IRIDIUM 33 DEB", "OBJECT_ID": "1997-051GN", "EPOCH": "2025-12-10T04:35:23.086752", "MEAN_MOTION": 14.2744131, "ECCENTRICITY": 0.00790645, "INCLINATION": 86.2779, "RA_OF_ASC_NODE": 53.4903, "ARG_OF_PERICENTER": 347.8917, "MEAN_ANOMALY": 40.4515, "EPHEMERIS_TYPE": 0, "CLASSIFICATION_TYPE": "U", "NORAD_CAT_ID": 34497, "ELEMENT_SET_NO": 999, "REV_AT_EPOCH": 86847, "BSTAR": 0.00082191095, "MEAN_MOTION_DOT": 2.102e-05, "MEAN_MOTION_DDOT": 0}, "tle": {"line1": "1 34497U 97051GN  25344.19123943  .00002102  00000+0  82191-3 0  9997", "line2": "2 34497  86.2779  53.4903 0079064 347.8917  40.4515 14.27441310868476"}}, "geometry": {"type": "Point", "coordinates": [54.47226815633926, 23.34754201176784]}}, {"type": "Feature", "properties": {"norad_id": 34508, "name": "IRIDIUM 33 DEB", "group": "iridium-33-debris", "lat": 41.80471817667053, "lon": -80.15473407411574, "alt_km": 723.4230484908885, "timestamp": "2025-12-11T15:53:39.928526+00:00", "meta": {"OBJECT_NAME": "IRIDIUM 33 DEB", "OBJECT_ID": "1997-051GZ", "EPOCH": "2025-12-11T06:54:18.303840", "MEAN_MOTION": 14.38408433, "ECCENTRICITY": 0.00659662, "INCLINATION": 86.3699, "RA_OF_ASC_NODE": 103.2585, "ARG_OF_PERICENTER": 177.6911, "MEAN_ANOMALY": 182.4606, "EPHEMERIS_TYPE": 0, "CLASSIFICATION_TYPE": "U", "NORAD_CAT_ID": 34508, "ELEMENT_SET_NO": 999, "REV_AT_EPOCH": 87288, "BSTAR": 0.0027452722, "MEAN_MOTION_DOT": 8.607e-05, "MEAN_MOTION_DDOT": 0}, "tle": {"line1": "1 34508U 97051GZ  25345.28771185  .00008607  00000+0  27453-2 0  9993", "line2": "2 34508  86.3699 103.2585 0065966 177.6911 182.4606 14.38408433872889"}}, "geometry": {"type": "Point", "coordinates": [-80.15473407411574, 41.80471817667053]}}, {"type": "Feature", "properties": {"norad_id": 34521, "name": "IRIDIUM 33 DEB", "group": "iridium-33-debris", "lat": -39.65020307328493, "lon": -145.9703456171524, "alt_km": 688.002150181087, "timestamp": "2025-12-11T15:53:39.928538+00:00", "meta": {"OBJECT_NAME": "IRIDIUM 33 DEB", "OBJECT_ID": "1997-051HN", "EPOCH": "2025-12-11T03:24:20.282688", "MEAN_MOTION": 14.63343706, "ECCENTRICITY": 0.00013776, "INCLINATION": 86.38, "RA_OF_ASC_NODE": 31.2512, "ARG_OF_PERICENTER": 224.2146, "MEAN_ANOMALY": 135.8956, "EPHEMERIS_TYPE": 0, "CLASSIFICATION_TYPE": "U", "NORAD_CAT_ID": 34521, "ELEMENT_SET_NO": 999, "REV_AT_EPOCH": 88449, "BSTAR": 0.0013462152, "MEAN_MOTION_DOT": 6.973e-05, "MEAN_MOTION_DDOT": 0}, "tle": {"line1": "1 34521U 97051HN  25345.14190142  .00006973  00000+0  13462-2 0  9990", "line2": "2 34521  86.3800  31.2512 0001377 224.2146 135.8956 14.63343706884492"}}, "geometry": {"type": "Point", "coordinates": [-145.9703456171524, -39.65020307328493]}}, {"type": "Feature", "properties": {"norad_id": 34525, "name": "IRIDIUM 33 DEB", "group": "iridium-33-debris", "lat": 61.791871610335406, "lon": -139.48818101692694, "alt_km": 738.5406735164315, "timestamp": "2025-12-11T15:53:39.928548+00:00", "meta": {"OBJECT_NAME": "IRIDIUM 33 DEB", "OBJECT_ID": "1997-051HS", "EPOCH": "2025-12-11T05:41:41.994240", "MEAN_MOTION": 14.42899874, "ECCENTRICITY": 0.00066869, "INCLINATION": 86.3728, "RA_OF_ASC_NODE": 47.4849, "ARG_OF_PERICENTER": 98.7535, "MEAN_ANOMALY": 333.0533, "EPHEMERIS_TYPE": 0, "CLASSIFICATION_TYPE": "U", "NORAD_CAT_ID": 34525, "ELEMENT_SET_NO": 999, "REV_AT_EPOCH": 88066, "BSTAR": 0.00054841591, "MEAN_MOTION_DOT": 1.851e-05, "MEAN_MOTION_DDOT": 0}, "tle": {"line1": "1 34525U 97051HS  25345.23729160  .00001851  00000+0  54842-3 0  9990", "line2": "2 34525  86.3728  47.4849 0006686  98.7535 333.0533 14.42899874880668"}}, "geometry": {"type": "Point", "coordinates": [-139.48818101692694, 61.791871610335406]}}]}